{"fetched_at":"2026-03-29T16:36:15Z","count":15609,"tles":[{"name":"USA 485","line1":"1 62756U 25014X   26087.88285019  .00307939  00000+0  18179-2 0  9990","line2":"2 62756  42.9976 238.8819 0001997 258.3379 101.7267 15.76468885 68092","category":"Military"}]}